STARLINK-1304
1 45376U 20019S   26060.63690464  .00092167  00000+0  18044-2 0  9992
2 45376  53.0501 187.9917 0001774 243.7426 116.3398 15.46659681328724
